{
  "norad_id": 56350,
  "name": "STARLINK-5886",
  "history": [
    {
      "epoch": "2026-03-28T22:13:06.017376Z",
      "apogee_km": 551.4762451482202,
      "perigee_km": 547.5280450466471,
      "latitude_deg": -5.1157588516369947e-05,
      "longitude_deg": -69.39347626944593,
      "height_km": 552.3628374419467,
      "semi_major_axis_km": 6927.639145097433,
      "eccentricity": 0.00028496,
      "inclination_deg": 97.6035,
      "raan_deg": 90.2208,
      "arg_perigee_deg": 84.1953,
      "mean_anomaly_deg": 275.9598,
      "mean_motion_rev_day": 15.05652937
    },
    {
      "epoch": "2026-03-28T23:48:48.035232Z",
      "apogee_km": 551.4956286815313,
      "perigee_km": 547.5219310621969,
      "latitude_deg": 2.586244293497629e-05,
      "longitude_deg": -93.31836544655663,
      "height_km": 552.3759818168886,
      "semi_major_axis_km": 6927.645779871864,
      "eccentricity": 0.0002868,
      "inclination_deg": 97.6034,
      "raan_deg": 90.2865,
      "arg_perigee_deg": 84.4227,
      "mean_anomaly_deg": 275.7327,
      "mean_motion_rev_day": 15.05650774
    },
    {
      "epoch": "2026-03-29T23:44:18.211488Z",
      "apogee_km": 551.513833416092,
      "perigee_km": 547.5362469790907,
      "latitude_deg": 5.196599443360207e-05,
      "longitude_deg": -92.19396965879955,
      "height_km": 552.3595241204667,
      "semi_major_axis_km": 6927.662040197591,
      "eccentricity": 0.00028708,
      "inclination_deg": 97.6029,
      "raan_deg": 91.2692,
      "arg_perigee_deg": 83.4803,
      "mean_anomaly_deg": 276.6751,
      "mean_motion_rev_day": 15.05645473
    },
    {
      "epoch": "2026-03-30T12:29:54.249792Z",
      "apogee_km": 551.4893620175853,
      "perigee_km": 547.5526510787831,
      "latitude_deg": 2.9362884573911347e-05,
      "longitude_deg": 76.40593933287572,
      "height_km": 552.3371524416269,
      "semi_major_axis_km": 6927.658006548184,
      "eccentricity": 0.00028413,
      "inclination_deg": 97.603,
      "raan_deg": 91.7933,
      "arg_perigee_deg": 82.8729,
      "mean_anomaly_deg": 277.2821,
      "mean_motion_rev_day": 15.05646788
    }
  ]
}